start=new Date('2021-10-18T00:00:00.000Z').valueOf();
sats=[{"ELEMENT_SET_NO":"999","RCS_SIZE":"LARGE","OBJECT_TYPE":"PAYLOAD","RA_OF_ASC_NODE":"307.8460","MEAN_MOTION_DDOT":"0.0000000000000","REV_AT_EPOCH":"9863","SEMIMAJOR_AXIS":"6925.399","CENTER_NAME":"EARTH","PERIOD":"95.593","TLE_LINE2":"2 44968  53.0548 307.8460 0001423  90.1193 269.9959 15.06383563 98634","SITE":"AFETR","REF_FRAME":"TEME","TIME_SYSTEM":"UTC","BSTAR":"-0.00002247600000","TLE_LINE1":"1 44968U 20001BG  21290.55837021 -.00000616  00000-0 -22476-4 0  9999","LAUNCH_DATE":"2020-01-07","COUNTRY_CODE":"US","OBJECT_NAME":"STARLINK-1090","CLASSIFICATION_TYPE":"U","INCLINATION":"53.0548","APOAPSIS":"548.249","ECCENTRICITY":"0.00014230","EPOCH":"2021-10-17T13:24:03.186144","OBJECT_ID":"2020-001BG","MEAN_ANOMALY":"269.9959","EPHEMERIS_TYPE":"0","MEAN_MOTION_DOT":"-0.00000616","DECAY_DATE":null,"FILE":"3168566","ARG_OF_PERICENTER":"90.1193","MEAN_MOTION":"15.06383563","GP_ID":"187443000","PERIAPSIS":"546.278","NORAD_CAT_ID":"44968","MEAN_ELEMENT_THEORY":"SGP4"},{"INCLINATION":"53.0546","CLASSIFICATION_TYPE":"U","OBJECT_NAME":"STARLINK-1092","COUNTRY_CODE":"US","LAUNCH_DATE":"2020-01-07","GP_ID":"187443750","NORAD_CAT_ID":"44969","PERIAPSIS":"546.450","MEAN_ELEMENT_THEORY":"SGP4","MEAN_MOTION":"15.06395305","FILE":"3168566","ARG_OF_PERICENTER":"79.7455","DECAY_DATE":null,"MEAN_MOTION_DOT":"0.00001533","MEAN_ANOMALY":"280.3661","EPHEMERIS_TYPE":"0","OBJECT_ID":"2020-001BH","EPOCH":"2021-10-17T13:13:26.398272","ECCENTRICITY":"0.00011240","APOAPSIS":"548.006","REV_AT_EPOCH":"9862","MEAN_MOTION_DDOT":"0.0000000000000","RA_OF_ASC_NODE":"307.8798","OBJECT_TYPE":"PAYLOAD","RCS_SIZE":"LARGE","ELEMENT_SET_NO":"999","TLE_LINE1":"1 44969U 20001BH  21290.55099998  .00001533  00000-0  12178-3 0  9997","BSTAR":"0.00012178000000","TIME_SYSTEM":"UTC","REF_FRAME":"TEME","SITE":"AFETR","TLE_LINE2":"2 44969  53.0546 307.8798 0001124  79.7455 280.3661 15.06395305 98622","CENTER_NAME":"EARTH","PERIOD":"95.592","SEMIMAJOR_AXIS":"6925.363"},{"SEMIMAJOR_AXIS":"6925.351","REF_FRAME":"TEME","TIME_SYSTEM":"UTC","BSTAR":"0.00023805000000","TLE_LINE1":"1 44970U 20001BJ  21290.52889115  .00003266  00000-0  23805-3 0  9998","CENTER_NAME":"EARTH","PERIOD":"95.592","TLE_LINE2":"2 44970  53.0553 307.9852 0001255  81.1831 278.9300 15.06399106 98619","SITE":"AFETR","ELEMENT_SET_NO":"999","RCS_SIZE":"LARGE","MEAN_MOTION_DDOT":"0.0000000000000","REV_AT_EPOCH":"9861","OBJECT_TYPE":"PAYLOAD","RA_OF_ASC_NODE":"307.9852","MEAN_ANOMALY":"278.9300","EPHEMERIS_TYPE":"0","MEAN_MOTION_DOT":"0.00003266","DECAY_DATE":null,"FILE":"3168566","ARG_OF_PERICENTER":"81.1831","APOAPSIS":"548.085","EPOCH":"2021-10-17T12:41:36.195360","ECCENTRICITY":"0.00012550","OBJECT_ID":"2020-001BJ","GP_ID":"187442498","PERIAPSIS":"546.347","NORAD_CAT_ID":"44970","MEAN_ELEMENT_THEORY":"SGP4","MEAN_MOTION":"15.06399106","COUNTRY_CODE":"US","OBJECT_NAME":"STARLINK-1093","LAUNCH_DATE":"2020-01-07","CLASSIFICATION_TYPE":"U","INCLINATION":"53.0553"},{"OBJECT_NAME":"STARLINK-1107","COUNTRY_CODE":"US","LAUNCH_DATE":"2020-01-07","INCLINATION":"53.0538","CLASSIFICATION_TYPE":"U","ARG_OF_PERICENTER":"94.2303","FILE":"3168566","DECAY_DATE":null,"MEAN_MOTION_DOT":"0.00001346","EPHEMERIS_TYPE":"0","MEAN_ANOMALY":"265.8838","OBJECT_ID":"2020-001BL","EPOCH":"2021-10-17T13:34:38.805024","ECCENTRICITY":"0.00013280","APOAPSIS":"548.125","PERIAPSIS":"546.285","GP_ID":"187442748","NORAD_CAT_ID":"44972","MEAN_ELEMENT_THEORY":"SGP4","MEAN_MOTION":"15.06402778","RCS_SIZE":"LARGE","ELEMENT_SET_NO":"999","REV_AT_EPOCH":"9863","MEAN_MOTION_DDOT":"0.0000000000000","RA_OF_ASC_NODE":"307.8097","OBJECT_TYPE":"PAYLOAD","SEMIMAJOR_AXIS":"6925.340","TLE_LINE1":"1 44972U 20001BL  21290.56572691  .00001346  00000-0  10926-3 0  9999","BSTAR":"0.00010926000000","TIME_SYSTEM":"UTC","REF_FRAME":"TEME","SITE":"AFETR","TLE_LINE2":"2 44972  53.0538 307.8097 0001328  94.2303 265.8838 15.06402778 98637","PERIOD":"95.592","CENTER_NAME":"EARTH"},{"ELEMENT_SET_NO":"999","RCS_SIZE":"LARGE","MEAN_MOTION_DDOT":"0.0000000000000","REV_AT_EPOCH":"9861","OBJECT_TYPE":"PAYLOAD","RA_OF_ASC_NODE":"308.2130","SEMIMAJOR_AXIS":"6925.396","TIME_SYSTEM":"UTC","REF_FRAME":"TEME","TLE_LINE1":"1 44973U 20001BM  21290.47728842  .00001402  00000-0  11302-3 0  9993","BSTAR":"0.00011302000000","TLE_LINE2":"2 44973  53.0554 308.2130 0001415  77.8506 282.2641 15.06384359 98615","PERIOD":"95.593","CENTER_NAME":"EARTH","SITE":"AFETR","OBJECT_NAME":"STARLINK-1115","COUNTRY_CODE":"US","LAUNCH_DATE":"2020-01-07","CLASSIFICATION_TYPE":"U","INCLINATION":"53.0554","MEAN_MOTION_DOT":"0.00001402","MEAN_ANOMALY":"282.2641","EPHEMERIS_TYPE":"0","FILE":"3168566","ARG_OF_PERICENTER":"77.8506","DECAY_DATE":null,"ECCENTRICITY":"0.00014150","EPOCH":"2021-10-17T11:27:17.719488","APOAPSIS":"548.241","OBJECT_ID":"2020-001BM","NORAD_CAT_ID":"44973","GP_ID":"187443500","PERIAPSIS":"546.282","MEAN_ELEMENT_THEORY":"SGP4","MEAN_MOTION":"15.06384359"},{"RCS_SIZE":"LARGE","ELEMENT_SET_NO":"999","OBJECT_TYPE":"PAYLOAD","RA_OF_ASC_NODE":"267.4349","REV_AT_EPOCH":"9497","MEAN_MOTION_DDOT":"0.0000000000000","SEMIMAJOR_AXIS":"6925.384","SITE":"AFETR","PERIOD":"95.593","CENTER_NAME":"EARTH","TLE_LINE2":"2 45044  53.0546 267.4349 0001469  69.0863 291.0283 15.06388378 94972","BSTAR":"0.00010869000000","TLE_LINE1":"1 45044U 20006A   21290.65053527  .00001337  00000-0  10869-3 0  9993","REF_FRAME":"TEME","TIME_SYSTEM":"UTC","LAUNCH_DATE":"2020-01-29","COUNTRY_CODE":"US","OBJECT_NAME":"STARLINK-1132","INCLINATION":"53.0546","CLASSIFICATION_TYPE":"U","OBJECT_ID":"2020-006A","APOAPSIS":"548.267","EPOCH":"2021-10-17T15:36:46.247328","ECCENTRICITY":"0.00014690","DECAY_DATE":null,"ARG_OF_PERICENTER":"69.0863","FILE":"3168566","EPHEMERIS_TYPE":"0","MEAN_ANOMALY":"291.0283","MEAN_MOTION_DOT":"0.00001337","MEAN_MOTION":"15.06388378","PERIAPSIS":"546.232","GP_ID":"187443007","NORAD_CAT_ID":"45044","MEAN_ELEMENT_THEORY":"SGP4"},{"PERIOD":"95.593","CENTER_NAME":"EARTH","TLE_LINE2":"2 45045  53.0540 288.6824 0001369  74.8775 285.2365 15.06380979 94655","SITE":"AFETR","REF_FRAME":"TEME","TIME_SYSTEM":"UTC","BSTAR":"0.00011017000000","TLE_LINE1":"1 45045U 20006B   21290.37225450  .00001359  00000-0  11017-3 0  9999","SEMIMAJOR_AXIS":"6925.407","RA_OF_ASC_NODE":"288.6824","OBJECT_TYPE":"PAYLOAD","MEAN_MOTION_DDOT":"0.0000000000000","REV_AT_EPOCH":"9465","ELEMENT_SET_NO":"999","RCS_SIZE":"LARGE","MEAN_MOTION":"15.06380979","NORAD_CAT_ID":"45045","GP_ID":"187443757","PERIAPSIS":"546.324","MEAN_ELEMENT_THEORY":"SGP4","APOAPSIS":"548.220","ECCENTRICITY":"0.00013690","EPOCH":"2021-10-17T08:56:02.788800","OBJECT_ID":"2020-006B","EPHEMERIS_TYPE":"0","MEAN_ANOMALY":"285.2365","MEAN_MOTION_DOT":"0.00001359","DECAY_DATE":null,"ARG_OF_PERICENTER":"74.8775","FILE":"3168566","CLASSIFICATION_TYPE":"U","INCLINATION":"53.0540","LAUNCH_DATE":"2020-01-29","COUNTRY_CODE":"US","OBJECT_NAME":"STARLINK-1120"},{"MEAN_MOTION":"15.08129615","NORAD_CAT_ID":"45046","GP_ID":"187442505","PERIAPSIS":"541.035","MEAN_ELEMENT_THEORY":"SGP4","OBJECT_ID":"2020-006C","ECCENTRICITY":"0.00012760","EPOCH":"2021-10-17T11:51:36.986112","APOAPSIS":"542.801","FILE":"3168566","ARG_OF_PERICENTER":"74.2767","DECAY_DATE":null,"MEAN_MOTION_DOT":"0.00004687","MEAN_ANOMALY":"285.8363","EPHEMERIS_TYPE":"0","INCLINATION":"52.9973","CLASSIFICATION_TYPE":"U","LAUNCH_DATE":"2020-01-29","OBJECT_NAME":"STARLINK-1129","COUNTRY_CODE":"US","SITE":"AFETR","TLE_LINE2":"2 45046  52.9973 284.8322 0001276  74.2767 285.8363 15.08129615 94695","PERIOD":"95.483","CENTER_NAME":"EARTH","TLE_LINE1":"1 45046U 20006C   21290.49417808  .00004687  00000-0  31834-3 0  9999","BSTAR":"0.00031834000000","TIME_SYSTEM":"UTC","REF_FRAME":"TEME","SEMIMAJOR_AXIS":"6920.053","OBJECT_TYPE":"PAYLOAD","RA_OF_ASC_NODE":"284.8322","REV_AT_EPOCH":"9469","MEAN_MOTION_DDOT":"0.0000000000000","RCS_SIZE":"LARGE","ELEMENT_SET_NO":"999"},{"TIME_SYSTEM":"UTC","REF_FRAME":"TEME","TLE_LINE1":"1 45047U 20006D   21290.50859972  .00001356  00000-0  10990-3 0  9994","BSTAR":"0.00010990000000","TLE_LINE2":"2 45047  53.0540 288.0779 0001397  82.8581 277.2567 15.06400123 94676","CENTER_NAME":"EARTH","PERIOD":"95.592","SITE":"AFETR","SEMIMAJOR_AXIS":"6925.348","MEAN_MOTION_DDOT":"0.0000000000000","REV_AT_EPOCH":"9467","OBJECT_TYPE":"PAYLOAD","RA_OF_ASC_NODE":"288.0779","ELEMENT_SET_NO":"999","RCS_SIZE":"LARGE","GP_ID":"187442755","MEAN_ELEMENT_THEORY":"SGP4","PERIAPSIS":"546.246","NORAD_CAT_ID":"45047","MEAN_MOTION":"15.06400123","MEAN_MOTION_DOT":"0.00001356","MEAN_ANOMALY":"277.2567","EPHEMERIS_TYPE":"0","FILE":"3168566","ARG_OF_PERICENTER":"82.8581","DECAY_DATE":null,"EPOCH":"2021-10-17T12:12:23.015808","ECCENTRICITY":"0.00013970","APOAPSIS":"548.181","OBJECT_ID":"2020-006D","CLASSIFICATION_TYPE":"U","INCLINATION":"53.0540","OBJECT_NAME":"STARLINK-1131","COUNTRY_CODE":"US","LAUNCH_DATE":"2020-01-29"},{"SEMIMAJOR_AXIS":"6925.372","BSTAR":"0.00013518000000","TLE_LINE1":"1 45048U 20006E   21290.38329884  .00001732  00000-0  13518-3 0  9992","REF_FRAME":"TEME","TIME_SYSTEM":"UTC","SITE":"AFETR","CENTER_NAME":"EARTH","PERIOD":"95.593","TLE_LINE2":"2 45048  53.0536 288.6349 0001396  71.2854 288.8286 15.06392330 94659","RCS_SIZE":"LARGE","ELEMENT_SET_NO":"999","REV_AT_EPOCH":"9465","MEAN_MOTION_DDOT":"0.0000000000000","RA_OF_ASC_NODE":"288.6349","OBJECT_TYPE":"PAYLOAD","DECAY_DATE":null,"ARG_OF_PERICENTER":"71.2854","FILE":"3168566","MEAN_ANOMALY":"288.8286","EPHEMERIS_TYPE":"0","MEAN_MOTION_DOT":"0.00001732","OBJECT_ID":"2020-006E","APOAPSIS":"548.204","ECCENTRICITY":"0.00013960","EPOCH":"2021-10-17T09:11:57.019776","GP_ID":"187443507","NORAD_CAT_ID":"45048","PERIAPSIS":"546.270","MEAN_ELEMENT_THEORY":"SGP4","MEAN_MOTION":"15.06392330","COUNTRY_CODE":"US","OBJECT_NAME":"STARLINK-1134","LAUNCH_DATE":"2020-01-29","INCLINATION":"53.0536","CLASSIFICATION_TYPE":"U"}];
